0 OSCAR 24
1 15936U 85066B   13282.43395274  .00000057  00000-0  87595-4 0  9723
2 15936 090.0941 030.2686 0170012 030.1651 020.2462 13.35317398373036
0 OSCAR 24
1 15936U 85066B   13283.72505194  .00000056  00000-0  85580-4 0  9732
2 15936 090.0943 030.2804 0169895 026.5376 106.7308 13.35317749373208
0 OSCAR 24
1 15936U 85066B   13286.40340189  .00000071  00000-0  11303-3 0  9751
2 15936 090.0948 030.3051 0169644 019.0013 021.9305 13.35317706373562
0 OSCAR 24
1 15936U 85066B   13287.84151416  .00000077  00000-0  12465-3 0  9760
2 15936 090.0949 030.3184 0169511 014.9367 095.1532 13.35317930373754
0 OSCAR 24
1 15936U 85066B   13288.89323103  .00000108  00000-0  18009-3 0  9776
2 15936 090.0949 030.3282 0169417 011.9540 110.9274 13.35317847373899
0 OSCAR 24
1 15936U 85066B   13290.37466331  .00000102  00000-0  16978-3 0  9781
2 15936 090.0947 030.3421 0169280 007.7711 032.3922 13.35318140374090
0 OSCAR 24
1 15936U 85066B   13291.42424615  .00000102  00000-0  17021-3 0  9798
2 15936 090.0946 030.3518 0169188 004.8066 037.8959 13.35318304374232
0 OSCAR 24
1 15936U 85066B   13292.86339788  .00000122  00000-0  20692-3 0  9805
2 15936 090.0944 030.3652 0169067 000.7364 116.1215 13.35318522374420
0 OSCAR 24
1 15936U 85066B   13294.19975176  .00000089  00000-0  14761-3 0  9813
2 15936 090.0944 030.3776 0168932 356.9686 060.1705 13.35319035374602
0 OSCAR 24
1 15936U 85066B   13295.39708197  .00000105  00000-0  17666-3 0  9820
2 15936 090.0944 030.3886 0168837 353.5672 055.9414 13.35319184374767
